[{"OBJECT_NAME":"TROLL","OBJECT_ID":"2025-009BB","EPOCH":"2026-03-09T05:24:19.835712","MEAN_MOTION":15.28164315,"ECCENTRICITY":0.00018165,"INCLINATION":97.3932,"RA_OF_ASC_NODE":150.7169,"ARG_OF_PERICENTER":59.185,"MEAN_ANOMALY":300.9568,"EPHEMERIS_TYPE":0,"CLASSIFICATION_TYPE":"U","NORAD_CAT_ID":62658,"ELEMENT_SET_NO":999,"REV_AT_EPOCH":11817,"BSTAR":0.00048220305,"MEAN_MOTION_DOT":0.00013174,"MEAN_MOTION_DDOT":0},{"OBJECT_NAME":"STARLINK-34100","OBJECT_ID":"2025-127R","EPOCH":"2026-03-09T14:57:17.609472","MEAN_MOTION":15.27611959,"ECCENTRICITY":0.00025421,"INCLINATION":43.0043,"RA_OF_ASC_NODE":180.4476,"ARG_OF_PERICENTER":293.059,"MEAN_ANOMALY":66.9994,"EPHEMERIS_TYPE":0,"CLASSIFICATION_TYPE":"U","NORAD_CAT_ID":64385,"ELEMENT_SET_NO":999,"REV_AT_EPOCH":4240,"BSTAR":0.00087619935,"MEAN_MOTION_DOT":0.00023952,"MEAN_MOTION_DDOT":0}]
