TROLL                   
1 62658U 25009BB  26068.22522958  .00013174  00000+0  48220-3 0  9994
2 62658  97.3932 150.7169 0001816  59.1850 300.9568 15.28164315118170
STARLINK-34100          
1 64385U 25127R   26068.62312048  .00023952  00000+0  87620-3 0  9997
2 64385  43.0043 180.4476 0002542 293.0590  66.9994 15.27611959 42402
